start=new Date('2022-01-29T00:00:00.000Z').valueOf();
sats=[{"TLE_LINE1":"1 45417U 20019BK  22028.49374383  .00000822  00000-0  74088-4 0  9991","MEAN_ANOMALY":"279.9902","RA_OF_ASC_NODE":"65.7630","BSTAR":"0.00007408800000","LAUNCH_DATE":"2020-03-18","SEMIMAJOR_AXIS":"6925.345","EPHEMERIS_TYPE":"0","COUNTRY_CODE":"US","RCS_SIZE":"LARGE","CENTER_NAME":"EARTH","SITE":"AFETR","GP_ID":"194842018","OBJECT_NAME":"STARLINK-1286","CLASSIFICATION_TYPE":"U","PERIAPSIS":"546.234","EPOCH":"2022-01-28T11:50:59.466912","ECCENTRICITY":"0.00014100","MEAN_MOTION_DOT":"0.00000822","PERIOD":"95.592","MEAN_MOTION_DDOT":"0.0000000000000","INCLINATION":"53.0548","MEAN_MOTION":"15.06401012","ELEMENT_SET_NO":"999","OBJECT_ID":"2020-019BK","OBJECT_TYPE":"PAYLOAD","TIME_SYSTEM":"UTC","FILE":"3286235","ARG_OF_PERICENTER":"80.1246","TLE_LINE2":"2 45417  53.0548  65.7630 0001410  80.1246 279.9902 15.06401012103453","MEAN_ELEMENT_THEORY":"SGP4","APOAPSIS":"548.187","DECAY_DATE":null,"REV_AT_EPOCH":"10345","NORAD_CAT_ID":"45417","REF_FRAME":"TEME"},{"OBJECT_ID":"2020-019BL","ELEMENT_SET_NO":"999","MEAN_MOTION":"15.02187838","REF_FRAME":"TEME","NORAD_CAT_ID":"45418","REV_AT_EPOCH":"10289","DECAY_DATE":null,"APOAPSIS":"561.064","MEAN_ELEMENT_THEORY":"SGP4","TLE_LINE2":"2 45418  53.0011  85.4889 0001312  94.6883 265.4253 15.02187838102891","FILE":"3286235","ARG_OF_PERICENTER":"94.6883","TIME_SYSTEM":"UTC","OBJECT_TYPE":"PAYLOAD","RCS_SIZE":"LARGE","COUNTRY_CODE":"US","EPHEMERIS_TYPE":"0","LAUNCH_DATE":"2020-03-18","SEMIMAJOR_AXIS":"6938.288","BSTAR":"0.00038506000000","RA_OF_ASC_NODE":"85.4889","MEAN_ANOMALY":"265.4253","TLE_LINE1":"1 45418U 20019BL  22028.54770080  .00004858  00000-0  38506-3 0  9999","INCLINATION":"53.0011","MEAN_MOTION_DDOT":"0.0000000000000","PERIOD":"95.860","ECCENTRICITY":"0.00013120","MEAN_MOTION_DOT":"0.00004858","PERIAPSIS":"559.243","EPOCH":"2022-01-28T13:08:41.349120","OBJECT_NAME":"STARLINK-1299","CLASSIFICATION_TYPE":"U","GP_ID":"194842268","SITE":"AFETR","CENTER_NAME":"EARTH"},{"OBJECT_ID":"2020-019BM","MEAN_MOTION":"15.06388489","ELEMENT_SET_NO":"999","NORAD_CAT_ID":"45419","REF_FRAME":"TEME","DECAY_DATE":null,"REV_AT_EPOCH":"10320","APOAPSIS":"548.262","MEAN_ELEMENT_THEORY":"SGP4","TLE_LINE2":"2 45419  53.0554  65.7621 0001463  72.7711 287.3438 15.06388489103206","ARG_OF_PERICENTER":"72.7711","FILE":"3286235","TIME_SYSTEM":"UTC","OBJECT_TYPE":"PAYLOAD","RCS_SIZE":"LARGE","COUNTRY_CODE":"US","EPHEMERIS_TYPE":"0","RA_OF_ASC_NODE":"65.7621","SEMIMAJOR_AXIS":"6925.384","LAUNCH_DATE":"2020-03-18","BSTAR":"-0.00013774000000","TLE_LINE1":"1 45419U 20019BM  22028.49006289 -.00002332  00000-0 -13774-3 0  9994","MEAN_ANOMALY":"287.3438","MEAN_MOTION_DDOT":"0.0000000000000","INCLINATION":"53.0554","PERIOD":"95.593","MEAN_MOTION_DOT":"-0.00002332","ECCENTRICITY":"0.00014630","CLASSIFICATION_TYPE":"U","OBJECT_NAME":"STARLINK-1308","EPOCH":"2022-01-28T11:45:41.433696","PERIAPSIS":"546.236","GP_ID":"194843020","CENTER_NAME":"EARTH","SITE":"AFETR"},{"APOAPSIS":"548.354","DECAY_DATE":null,"REV_AT_EPOCH":"9889","NORAD_CAT_ID":"45531","REF_FRAME":"TEME","OBJECT_TYPE":"PAYLOAD","TIME_SYSTEM":"UTC","FILE":"3286235","ARG_OF_PERICENTER":"62.3839","TLE_LINE2":"2 45531  53.0577   3.8156 0001640  62.3839 297.7316 15.06398351 98892","MEAN_ELEMENT_THEORY":"SGP4","MEAN_MOTION":"15.06398351","ELEMENT_SET_NO":"999","OBJECT_ID":"2020-025A","MEAN_MOTION_DOT":"0.00002150","ECCENTRICITY":"0.00016400","PERIOD":"95.592","MEAN_MOTION_DDOT":"0.0000000000000","INCLINATION":"53.0577","CENTER_NAME":"EARTH","SITE":"AFETR","GP_ID":"194843282","OBJECT_NAME":"STARLINK-1329","CLASSIFICATION_TYPE":"U","PERIAPSIS":"546.083","EPOCH":"2022-01-28T22:09:21.179520","EPHEMERIS_TYPE":"0","COUNTRY_CODE":"US","RCS_SIZE":"LARGE","TLE_LINE1":"1 45531U 20025A   22028.92316180  .00002150  00000-0  16323-3 0  9997","MEAN_ANOMALY":"297.7316","RA_OF_ASC_NODE":"3.8156","LAUNCH_DATE":"2020-04-22","SEMIMAJOR_AXIS":"6925.354","BSTAR":"0.00016323000000"},{"ARG_OF_PERICENTER":"79.9057","FILE":"3286235","MEAN_ELEMENT_THEORY":"SGP4","TLE_LINE2":"2 45532  53.0561   4.9640 0001471  79.9057 280.2098 15.06401475 98856","OBJECT_TYPE":"PAYLOAD","TIME_SYSTEM":"UTC","REV_AT_EPOCH":"9885","DECAY_DATE":null,"REF_FRAME":"TEME","NORAD_CAT_ID":"45532","APOAPSIS":"548.228","OBJECT_ID":"2020-025B","ELEMENT_SET_NO":"999","MEAN_MOTION":"15.06401475","GP_ID":"194842030","EPOCH":"2022-01-28T16:03:06.152544","PERIAPSIS":"546.190","OBJECT_NAME":"STARLINK-1338","CLASSIFICATION_TYPE":"U","CENTER_NAME":"EARTH","SITE":"AFETR","INCLINATION":"53.0561","MEAN_MOTION_DDOT":"0.0000000000000","MEAN_MOTION_DOT":"-0.00000633","ECCENTRICITY":"0.00014710","PERIOD":"95.592","LAUNCH_DATE":"2020-04-22","SEMIMAJOR_AXIS":"6925.344","BSTAR":"-0.00002357900000","RA_OF_ASC_NODE":"4.9640","MEAN_ANOMALY":"280.2098","TLE_LINE1":"1 45532U 20025B   22028.66882121 -.00000633  00000-0 -23579-4 0  9990","COUNTRY_CODE":"US","RCS_SIZE":"LARGE","EPHEMERIS_TYPE":"0"},{"RCS_SIZE":"LARGE","COUNTRY_CODE":"US","EPHEMERIS_TYPE":"0","SEMIMAJOR_AXIS":"6848.244","LAUNCH_DATE":"2020-04-22","BSTAR":"0.00213110000000","RA_OF_ASC_NODE":"353.9493","MEAN_ANOMALY":"292.2593","TLE_LINE1":"1 45533U 20025C   22028.61851649  .00066808  00000-0  21311-2 0  9991","INCLINATION":"53.0515","MEAN_MOTION_DDOT":"0.0000000000000","PERIOD":"94.000","ECCENTRICITY":"0.00013050","MEAN_MOTION_DOT":"0.00066808","PERIAPSIS":"469.215","EPOCH":"2022-01-28T14:50:39.824736","OBJECT_NAME":"STARLINK-1339","CLASSIFICATION_TYPE":"U","GP_ID":"194842280","CENTER_NAME":"EARTH","SITE":"AFETR","OBJECT_ID":"2020-025C","ELEMENT_SET_NO":"999","MEAN_MOTION":"15.31912533","REF_FRAME":"TEME","NORAD_CAT_ID":"45533","REV_AT_EPOCH":"9900","DECAY_DATE":null,"APOAPSIS":"471.002","TLE_LINE2":"2 45533  53.0515 353.9493 0001305  67.8545 292.2593 15.31912533 99004","MEAN_ELEMENT_THEORY":"SGP4","FILE":"3286235","ARG_OF_PERICENTER":"67.8545","TIME_SYSTEM":"UTC","OBJECT_TYPE":"PAYLOAD"},{"COUNTRY_CODE":"US","RCS_SIZE":"LARGE","EPHEMERIS_TYPE":"0","RA_OF_ASC_NODE":"6.4039","LAUNCH_DATE":"2020-04-22","SEMIMAJOR_AXIS":"6925.386","BSTAR":"-0.00015719000000","TLE_LINE1":"1 45534U 20025D   22028.34815848 -.00002621  00000-0 -15719-3 0  9994","MEAN_ANOMALY":"295.2740","MEAN_MOTION_DDOT":"0.0000000000000","INCLINATION":"53.0554","MEAN_MOTION_DOT":"-0.00002621","ECCENTRICITY":"0.00016550","PERIOD":"95.593","GP_ID":"194818536","OBJECT_NAME":"STARLINK-1341","CLASSIFICATION_TYPE":"U","EPOCH":"2022-01-28T08:21:20.892672","PERIAPSIS":"546.105","SITE":"AFETR","CENTER_NAME":"EARTH","OBJECT_ID":"2020-025D","MEAN_MOTION":"15.06387788","ELEMENT_SET_NO":"999","DECAY_DATE":null,"REV_AT_EPOCH":"9821","NORAD_CAT_ID":"45534","REF_FRAME":"TEME","APOAPSIS":"548.397","FILE":"3286031","ARG_OF_PERICENTER":"64.8421","MEAN_ELEMENT_THEORY":"SGP4","TLE_LINE2":"2 45534  53.0554   6.4039 0001655  64.8421 295.2740 15.06387788 98211","OBJECT_TYPE":"PAYLOAD","TIME_SYSTEM":"UTC"},{"ECCENTRICITY":"0.00014730","MEAN_MOTION_DOT":"0.00001038","PERIOD":"95.592","INCLINATION":"53.0552","MEAN_MOTION_DDOT":"0.0000000000000","SITE":"AFETR","CENTER_NAME":"EARTH","GP_ID":"194842783","PERIAPSIS":"546.189","EPOCH":"2022-01-28T21:32:10.752288","CLASSIFICATION_TYPE":"U","OBJECT_NAME":"STARLINK-1350","EPHEMERIS_TYPE":"0","COUNTRY_CODE":"US","RCS_SIZE":"LARGE","MEAN_ANOMALY":"297.8460","TLE_LINE1":"1 45535U 20025E   22028.89734667  .00001038  00000-0  88547-4 0  9993","SEMIMAJOR_AXIS":"6925.344","LAUNCH_DATE":"2020-04-22","BSTAR":"0.00008854700000","RA_OF_ASC_NODE":"3.9495","APOAPSIS":"548.229","REV_AT_EPOCH":"9889","DECAY_DATE":null,"REF_FRAME":"TEME","NORAD_CAT_ID":"45535","OBJECT_TYPE":"PAYLOAD","TIME_SYSTEM":"UTC","ARG_OF_PERICENTER":"62.2678","FILE":"3286235","MEAN_ELEMENT_THEORY":"SGP4","TLE_LINE2":"2 45535  53.0552   3.9495 0001473  62.2678 297.8460 15.06401491 98891","ELEMENT_SET_NO":"999","MEAN_MOTION":"15.06401491","OBJECT_ID":"2020-025E"},{"SITE":"AFETR","CENTER_NAME":"EARTH","OBJECT_NAME":"STARLINK-1352","CLASSIFICATION_TYPE":"U","PERIAPSIS":"546.120","EPOCH":"2022-01-28T20:01:57.882144","GP_ID":"194841531","PERIOD":"95.593","ECCENTRICITY":"0.00016120","MEAN_MOTION_DOT":"-0.00000443","MEAN_MOTION_DDOT":"0.0000000000000","INCLINATION":"53.0553","TLE_LINE1":"1 45536U 20025F   22028.83469771 -.00000443  00000-0 -10818-4 0  9996","MEAN_ANOMALY":"292.7599","RA_OF_ASC_NODE":"4.2193","LAUNCH_DATE":"2020-04-22","SEMIMAJOR_AXIS":"6925.371","BSTAR":"-0.00001081800000","EPHEMERIS_TYPE":"0","RCS_SIZE":"LARGE","COUNTRY_CODE":"US","TIME_SYSTEM":"UTC","OBJECT_TYPE":"PAYLOAD","MEAN_ELEMENT_THEORY":"SGP4","TLE_LINE2":"2 45536  53.0553   4.2193 0001612  67.3560 292.7599 15.06392589 98875","FILE":"3286235","ARG_OF_PERICENTER":"67.3560","APOAPSIS":"548.353","NORAD_CAT_ID":"45536","REF_FRAME":"TEME","DECAY_DATE":null,"REV_AT_EPOCH":"9887","MEAN_MOTION":"15.06392589","ELEMENT_SET_NO":"999","OBJECT_ID":"2020-025F"},{"OBJECT_ID":"2020-025G","ELEMENT_SET_NO":"999","MEAN_MOTION":"15.16946052","TLE_LINE2":"2 45537  53.0029 334.1510 0001227  52.2472 307.8632 15.16946052 99259","MEAN_ELEMENT_THEORY":"SGP4","FILE":"3286235","ARG_OF_PERICENTER":"52.2472","TIME_SYSTEM":"UTC","OBJECT_TYPE":"PAYLOAD","REF_FRAME":"TEME","NORAD_CAT_ID":"45537","REV_AT_EPOCH":"9925","DECAY_DATE":null,"APOAPSIS":"515.925","BSTAR":"0.00034554000000","LAUNCH_DATE":"2020-04-22","SEMIMAJOR_AXIS":"6893.214","RA_OF_ASC_NODE":"334.1510","MEAN_ANOMALY":"307.8632","TLE_LINE1":"1 45537U 20025G   22028.54941621  .00006594  00000-0  34554-3 0  9997","RCS_SIZE":"LARGE","COUNTRY_CODE":"US","EPHEMERIS_TYPE":"0","PERIAPSIS":"514.233","EPOCH":"2022-01-28T13:11:09.560544","OBJECT_NAME":"STARLINK-1353","CLASSIFICATION_TYPE":"U","GP_ID":"194841781","SITE":"AFETR","CENTER_NAME":"EARTH","INCLINATION":"53.0029","MEAN_MOTION_DDOT":"0.0000000000000","PERIOD":"94.928","ECCENTRICITY":"0.00012270","MEAN_MOTION_DOT":"0.00006594"}];
